QIANFAN-73              
1 63159U 25046A   25296.90788926  .00000112  00000+0  15474-3 0  9991
2 63159  88.9776 325.1844 0012945 267.2754  92.6916 13.50971810 40688
QIANFAN-74              
1 63160U 25046B   25296.96548205  .00000113  00000+0  15599-3 0  9992
2 63160  88.9776 325.0667 0002120  96.5673 263.5719 13.50973690 40755
QIANFAN-75              
1 63161U 25046C   25296.87895512  .00000168  00000+0  24217-3 0  9996
2 63161  88.9778 325.3086 0014059 270.8030  89.1510 13.50982095 40619
QIANFAN-76              
1 63162U 25046D   25296.87496388  .00000028  00000+0  24314-4 0  9999
2 63162  88.9778 325.2900 0011613 271.5092  88.4729 13.50972808 40629
QIANFAN-77              
1 63163U 25046E   25296.87249698  .00000211  00000+0  14378-3 0  9992
2 63163  88.9775 323.7067 0013088 230.6286 129.3732 13.96076097 41493
QIANFAN-78              
1 63164U 25046F   25296.91613156  .00000115  00000+0  15961-3 0  9994
2 63164  88.9777 325.1502 0013000 274.0101  85.9564 13.50974169 40708
QIANFAN-79              
1 63165U 25046G   25296.87075195  .00000114  00000+0  15781-3 0  9994
2 63165  88.9781 325.2605 0012689 272.1456  87.8242 13.50973458 40640
QIANFAN-80              
1 63166U 25046H   25296.88731944  .00000152  00000+0  21706-3 0  9993
2 63166  88.9777 324.9668 0011663 277.2636  82.7189 13.50974484 40800
